ONEWEB-0651             
1 56080U 23043AL  25241.28840655  .00000145  00000+0  35230-3 0  9998
2 56080  87.9069 317.4625 0002192  98.1660 261.9719 13.15548830119242
ONEWEB-0718             
1 56081U 23043AM  25241.20760671  .00000136  00000+0  32642-3 0  9994
2 56081  87.9059 317.4613 0001760 120.2811 239.8494 13.15547962118040
ONEWEB-0561             
1 56710U 23068A   25241.23109465  .00000109  00000+0  23529-3 0  9995
2 56710  87.9288 332.6484 0002211  88.1449 271.9937 13.20772810110969
ONEWEB-0668             
1 56711U 23068B   25241.17229506  .00000033  00000+0  51882-4 0  9998
2 56711  87.9013 286.9644 0001996 110.7500 249.3845 13.16591616113355
ONEWEB-0676             
1 56712U 23068C   25241.22852335 -.00000078  00000+0 -23889-3 0  9993
2 56712  87.9007 286.9738 0002212  88.4114 271.7271 13.16593267113285
ONEWEB-0677             
1 56713U 23068D   25241.29580279  .00000064  00000+0  12584-3 0  9999
2 56713  87.9287 332.6119 0002181  98.9903 261.1478 13.20773451111274
ONEWEB-0678             
1 56714U 23068E   25241.25196407  .00000024  00000+0  30701-4 0  9990
2 56714  87.9066 317.4244 0001761  89.0025 271.1307 13.15548061110901
ONEWEB-0679             
1 56715U 23068F   25241.12166229  .00000156  00000+0  37445-3 0  9993
2 56715  87.9004 286.9877 0002394 102.1071 258.0329 13.16593965113294
ONEWEB-0680             
1 56716U 23068G   25241.21192554  .00000021  00000+0  18880-4 0  9998
2 56716  87.9232 302.2258 0002221 113.0966 247.0403 13.21824548112522
ONEWEB-0681             
1 56717U 23068H   25241.18987647  .00000057  00000+0  10583-3 0  9990
2 56717  87.9234 302.2468 0002983  86.6130 273.5345 13.21825892112512
ONEWEB-0682             
1 56718U 23068J   25241.27810147  .00000253  00000+0  63831-3 0  9993
2 56718  87.9052 317.4411 0002177 111.0654 249.0709 13.15547840111075
ONEWEB-0683             
1 56719U 23068K   25241.22344602  .00000108  00000+0  25226-3 0  9992
2 56719  87.9064 317.4287 0001980 106.7326 253.4022 13.15548935111037
ONEWEB-0684             
1 56720U 23068L   25241.23136319  .00000044  00000+0  82892-4 0  9991
2 56720  87.9044 317.4283 0000795  53.6471 306.4733 13.15548945110866
ONEWEB-0686             
1 56721U 23068M   25241.18735650  .00001582  00000+0  41039-2 0  9993
2 56721  87.8992 287.0054 0001661 105.3157 254.8157 13.16587259113293
ONEWEB-0694             
1 56722U 23068N   25241.15412718  .00000004  00000+0 -23479-4 0  9997
2 56722  87.9007 286.9391 0002144 106.7415 253.3951 13.16594603113346
ONEWEB-0696             
1 56723U 23068P   25241.26463905  .00000092  00000+0  21007-3 0  9994
2 56723  87.9061 317.4738 0001737  90.2668 269.8662 13.15548347110987
