[{"OBJECT_NAME":"ONEWEB-0651","OBJECT_ID":"2023-043AL","EPOCH":"2025-08-29T06:55:18.325920","MEAN_MOTION":13.1554883,"ECCENTRICITY":0.00021924,"INCLINATION":87.9069,"RA_OF_ASC_NODE":317.4625,"ARG_OF_PERICENTER":98.166,"MEAN_ANOMALY":261.9719,"EPHEMERIS_TYPE":0,"CLASSIFICATION_TYPE":"U","NORAD_CAT_ID":56080,"ELEMENT_SET_NO":999,"REV_AT_EPOCH":11924,"BSTAR":0.00035229901,"MEAN_MOTION_DOT":1.45e-6,"MEAN_MOTION_DDOT":0},{"OBJECT_NAME":"ONEWEB-0718","OBJECT_ID":"2023-043AM","EPOCH":"2025-08-29T04:58:57.219744","MEAN_MOTION":13.15547962,"ECCENTRICITY":0.00017608,"INCLINATION":87.9059,"RA_OF_ASC_NODE":317.4613,"ARG_OF_PERICENTER":120.2811,"MEAN_ANOMALY":239.8494,"EPHEMERIS_TYPE":0,"CLASSIFICATION_TYPE":"U","NORAD_CAT_ID":56081,"ELEMENT_SET_NO":999,"REV_AT_EPOCH":11804,"BSTAR":0.00032642467,"MEAN_MOTION_DOT":1.36e-6,"MEAN_MOTION_DDOT":0},{"OBJECT_NAME":"ONEWEB-0561","OBJECT_ID":"2023-068A","EPOCH":"2025-08-29T05:32:46.577760","MEAN_MOTION":13.2077281,"ECCENTRICITY":0.00022111,"INCLINATION":87.9288,"RA_OF_ASC_NODE":332.6484,"ARG_OF_PERICENTER":88.1449,"MEAN_ANOMALY":271.9937,"EPHEMERIS_TYPE":0,"CLASSIFICATION_TYPE":"U","NORAD_CAT_ID":56710,"ELEMENT_SET_NO":999,"REV_AT_EPOCH":11096,"BSTAR":0.0002352856,"MEAN_MOTION_DOT":1.09e-6,"MEAN_MOTION_DDOT":0},{"OBJECT_NAME":"ONEWEB-0668","OBJECT_ID":"2023-068B","EPOCH":"2025-08-29T04:08:06.293184","MEAN_MOTION":13.16591616,"ECCENTRICITY":0.0001996,"INCLINATION":87.9013,"RA_OF_ASC_NODE":286.9644,"ARG_OF_PERICENTER":110.75,"MEAN_ANOMALY":249.3845,"EPHEMERIS_TYPE":0,"CLASSIFICATION_TYPE":"U","NORAD_CAT_ID":56711,"ELEMENT_SET_NO":999,"REV_AT_EPOCH":11335,"BSTAR":5.1882213e-5,"MEAN_MOTION_DOT":3.3e-7,"MEAN_MOTION_DDOT":0},{"OBJECT_NAME":"ONEWEB-0676","OBJECT_ID":"2023-068C","EPOCH":"2025-08-29T05:29:04.417440","MEAN_MOTION":13.16593267,"ECCENTRICITY":0.00022121,"INCLINATION":87.9007,"RA_OF_ASC_NODE":286.9738,"ARG_OF_PERICENTER":88.4114,"MEAN_ANOMALY":271.7271,"EPHEMERIS_TYPE":0,"CLASSIFICATION_TYPE":"U","NORAD_CAT_ID":56712,"ELEMENT_SET_NO":999,"REV_AT_EPOCH":11328,"BSTAR":-0.00023888853,"MEAN_MOTION_DOT":-7.8e-7,"MEAN_MOTION_DDOT":0},{"OBJECT_NAME":"ONEWEB-0677","OBJECT_ID":"2023-068D","EPOCH":"2025-08-29T07:05:57.361056","MEAN_MOTION":13.20773451,"ECCENTRICITY":0.00021814,"INCLINATION":87.9287,"RA_OF_ASC_NODE":332.6119,"ARG_OF_PERICENTER":98.9903,"MEAN_ANOMALY":261.1478,"EPHEMERIS_TYPE":0,"CLASSIFICATION_TYPE":"U","NORAD_CAT_ID":56713,"ELEMENT_SET_NO":999,"REV_AT_EPOCH":11127,"BSTAR":0.00012584269,"MEAN_MOTION_DOT":6.4e-7,"MEAN_MOTION_DDOT":0},{"OBJECT_NAME":"ONEWEB-0678","OBJECT_ID":"2023-068E","EPOCH":"2025-08-29T06:02:49.695648","MEAN_MOTION":13.15548061,"ECCENTRICITY":0.00017617,"INCLINATION":87.9066,"RA_OF_ASC_NODE":317.4244,"ARG_OF_PERICENTER":89.0025,"MEAN_ANOMALY":271.1307,"EPHEMERIS_TYPE":0,"CLASSIFICATION_TYPE":"U","NORAD_CAT_ID":56714,"ELEMENT_SET_NO":999,"REV_AT_EPOCH":11090,"BSTAR":3.0700877e-5,"MEAN_MOTION_DOT":2.4e-7,"MEAN_MOTION_DDOT":0},{"OBJECT_NAME":"ONEWEB-0679","OBJECT_ID":"2023-068F","EPOCH":"2025-08-29T02:55:11.621856","MEAN_MOTION":13.16593965,"ECCENTRICITY":0.00023943,"INCLINATION":87.9004,"RA_OF_ASC_NODE":286.9877,"ARG_OF_PERICENTER":102.1071,"MEAN_ANOMALY":258.0329,"EPHEMERIS_TYPE":0,"CLASSIFICATION_TYPE":"U","NORAD_CAT_ID":56715,"ELEMENT_SET_NO":999,"REV_AT_EPOCH":11329,"BSTAR":0.00037444555,"MEAN_MOTION_DOT":1.56e-6,"MEAN_MOTION_DDOT":0},{"OBJECT_NAME":"ONEWEB-0680","OBJECT_ID":"2023-068G","EPOCH":"2025-08-29T05:05:10.366656","MEAN_MOTION":13.21824548,"ECCENTRICITY":0.00022212,"INCLINATION":87.9232,"RA_OF_ASC_NODE":302.2258,"ARG_OF_PERICENTER":113.0966,"MEAN_ANOMALY":247.0403,"EPHEMERIS_TYPE":0,"CLASSIFICATION_TYPE":"U","NORAD_CAT_ID":56716,"ELEMENT_SET_NO":999,"REV_AT_EPOCH":11252,"BSTAR":1.8879937e-5,"MEAN_MOTION_DOT":2.1e-7,"MEAN_MOTION_DDOT":0},{"OBJECT_NAME":"ONEWEB-0681","OBJECT_ID":"2023-068H","EPOCH":"2025-08-29T04:33:25.327008","MEAN_MOTION":13.21825892,"ECCENTRICITY":0.00029835,"INCLINATION":87.9234,"RA_OF_ASC_NODE":302.2468,"ARG_OF_PERICENTER":86.613,"MEAN_ANOMALY":273.5345,"EPHEMERIS_TYPE":0,"CLASSIFICATION_TYPE":"U","NORAD_CAT_ID":56717,"ELEMENT_SET_NO":999,"REV_AT_EPOCH":11251,"BSTAR":0.00010582869,"MEAN_MOTION_DOT":5.7e-7,"MEAN_MOTION_DDOT":0},{"OBJECT_NAME":"ONEWEB-0682","OBJECT_ID":"2023-068J","EPOCH":"2025-08-29T06:40:27.967008","MEAN_MOTION":13.1554784,"ECCENTRICITY":0.00021778,"INCLINATION":87.9052,"RA_OF_ASC_NODE":317.4411,"ARG_OF_PERICENTER":111.0654,"MEAN_ANOMALY":249.0709,"EPHEMERIS_TYPE":0,"CLASSIFICATION_TYPE":"U","NORAD_CAT_ID":56718,"ELEMENT_SET_NO":999,"REV_AT_EPOCH":11107,"BSTAR":0.0006383074,"MEAN_MOTION_DOT":2.53e-6,"MEAN_MOTION_DDOT":0},{"OBJECT_NAME":"ONEWEB-0683","OBJECT_ID":"2023-068K","EPOCH":"2025-08-29T05:21:45.736128","MEAN_MOTION":13.15548935,"ECCENTRICITY":0.00019808,"INCLINATION":87.9064,"RA_OF_ASC_NODE":317.4287,"ARG_OF_PERICENTER":106.7326,"MEAN_ANOMALY":253.4022,"EPHEMERIS_TYPE":0,"CLASSIFICATION_TYPE":"U","NORAD_CAT_ID":56719,"ELEMENT_SET_NO":999,"REV_AT_EPOCH":11103,"BSTAR":0.00025226174,"MEAN_MOTION_DOT":1.08e-6,"MEAN_MOTION_DDOT":0},{"OBJECT_NAME":"ONEWEB-0684","OBJECT_ID":"2023-068L","EPOCH":"2025-08-29T05:33:09.779616","MEAN_MOTION":13.15548945,"ECCENTRICITY":7.953e-5,"INCLINATION":87.9044,"RA_OF_ASC_NODE":317.4283,"ARG_OF_PERICENTER":53.6471,"MEAN_ANOMALY":306.4733,"EPHEMERIS_TYPE":0,"CLASSIFICATION_TYPE":"U","NORAD_CAT_ID":56720,"ELEMENT_SET_NO":999,"REV_AT_EPOCH":11086,"BSTAR":8.2892252e-5,"MEAN_MOTION_DOT":4.4e-7,"MEAN_MOTION_DDOT":0},{"OBJECT_NAME":"ONEWEB-0686","OBJECT_ID":"2023-068M","EPOCH":"2025-08-29T04:29:47.601600","MEAN_MOTION":13.16587259,"ECCENTRICITY":0.00016615,"INCLINATION":87.8992,"RA_OF_ASC_NODE":287.0054,"ARG_OF_PERICENTER":105.3157,"MEAN_ANOMALY":254.8157,"EPHEMERIS_TYPE":0,"CLASSIFICATION_TYPE":"U","NORAD_CAT_ID":56721,"ELEMENT_SET_NO":999,"REV_AT_EPOCH":11329,"BSTAR":0.0041039112,"MEAN_MOTION_DOT":1.582e-5,"MEAN_MOTION_DDOT":0},{"OBJECT_NAME":"ONEWEB-0694","OBJECT_ID":"2023-068N","EPOCH":"2025-08-29T03:41:56.588352","MEAN_MOTION":13.16594603,"ECCENTRICITY":0.00021445,"INCLINATION":87.9007,"RA_OF_ASC_NODE":286.9391,"ARG_OF_PERICENTER":106.7415,"MEAN_ANOMALY":253.3951,"EPHEMERIS_TYPE":0,"CLASSIFICATION_TYPE":"U","NORAD_CAT_ID":56722,"ELEMENT_SET_NO":999,"REV_AT_EPOCH":11334,"BSTAR":-2.3478727e-5,"MEAN_MOTION_DOT":4.0e-8,"MEAN_MOTION_DDOT":0},{"OBJECT_NAME":"ONEWEB-0696","OBJECT_ID":"2023-068P","EPOCH":"2025-08-29T06:21:04.813920","MEAN_MOTION":13.15548347,"ECCENTRICITY":0.00017378,"INCLINATION":87.9061,"RA_OF_ASC_NODE":317.4738,"ARG_OF_PERICENTER":90.2668,"MEAN_ANOMALY":269.8662,"EPHEMERIS_TYPE":0,"CLASSIFICATION_TYPE":"U","NORAD_CAT_ID":56723,"ELEMENT_SET_NO":999,"REV_AT_EPOCH":11098,"BSTAR":0.00021007182,"MEAN_MOTION_DOT":9.2e-7,"MEAN_MOTION_DDOT":0}]
